{
  "type": "FeatureCollection",
  "features": [
    {
      "type": "Feature",
      "properties": {
        "norad_id": 37781,
        "name": "HAIYANG-2A",
        "group": "resource",
        "lat": 78.56636057735076,
        "lon": -71.57319759074073,
        "alt_km": 959.4405937138645,
        "timestamp": "2025-12-07T20:38:13.734303+00:00",
        "meta_object_name": "HAIYANG-2A",
        "meta_object_id": "2011-043A",
        "meta_epoch": "2025-12-07T06:18:07.788096",
        "meta_mean_motion": 13.78834636,
        "meta_eccentricity": 0.0001661,
        "meta_inclination": 99.3378,
        "meta_ra_of_asc_node": 342.2815,
        "meta_arg_of_pericenter": 91.8502,
        "meta_mean_anomaly": 268.284,
        "meta_ephemeris_type": 0,
        "meta_classification_type": "U",
        "meta_norad_cat_id": 37781,
        "meta_element_set_no": 999,
        "meta_rev_at_epoch": 72023,
        "meta_bstar": 4.4334592e-05,
        "meta_mean_motion_dot": 1e-08,
        "meta_mean_motion_ddot": 0,
        "tle_line1": "1 37781U 11043A   25341.26259014  .00000001  00000+0  44335-4 0  9992",
        "tle_line2": "2 37781  99.3378 342.2815 0001661  91.8502 268.2840 13.78834636720234"
      },
      "geometry": {
        "type": "Point",
        "coordinates": [
          -71.57319759074073,
          78.56636057735076
        ]
      }
    },
    {
      "type": "Feature",
      "properties": {
        "norad_id": 37791,
        "name": "RASAT",
        "group": "resource",
        "lat": 75.4844194700092,
        "lon": 37.98096866965171,
        "alt_km": 645.1633368866096,
        "timestamp": "2025-12-07T20:38:13.734314+00:00",
        "meta_object_name": "RASAT",
        "meta_object_id": "2011-044D",
        "meta_epoch": "2025-12-07T05:39:28.395648",
        "meta_mean_motion": 14.67897933,
        "meta_eccentricity": 0.00219352,
        "meta_inclination": 98.0656,
        "meta_ra_of_asc_node": 70.5753,
        "meta_arg_of_pericenter": 81.6593,
        "meta_mean_anomaly": 300.0382,
        "meta_ephemeris_type": 0,
        "meta_classification_type": "U",
        "meta_norad_cat_id": 37791,
        "meta_element_set_no": 999,
        "meta_rev_at_epoch": 76502,
        "meta_bstar": 0.00022669864,
        "meta_mean_motion_dot": 1.252e-05,
        "meta_mean_motion_ddot": 0,
        "tle_line1": "1 37791U 11044D   25341.23574532  .00001252  00000+0  22670-3 0  9992",
        "tle_line2": "2 37791  98.0656  70.5753 0021935  81.6593 300.0382 14.67897933765025"
      },
      "geometry": {
        "type": "Point",
        "coordinates": [
          37.98096866965171,
          75.4844194700092
        ]
      }
    },
    {
      "type": "Feature",
      "properties": {
        "norad_id": 37841,
        "name": "SRMSAT",
        "group": "resource",
        "lat": 17.88256149405998,
        "lon": -159.82530030708153,
        "alt_km": 857.4799343086606,
        "timestamp": "2025-12-07T20:38:13.734324+00:00",
        "meta_object_name": "SRMSAT",
        "meta_object_id": "2011-058D",
        "meta_epoch": "2025-12-07T04:06:17.615808",
        "meta_mean_motion": 14.11508539,
        "meta_eccentricity": 0.00117092,
        "meta_inclination": 19.9699,
        "meta_ra_of_asc_node": 141.6553,
        "meta_arg_of_pericenter": 251.5973,
        "meta_mean_anomaly": 264.6047,
        "meta_ephemeris_type": 0,
        "meta_classification_type": "U",
        "meta_norad_cat_id": 37841,
        "meta_element_set_no": 999,
        "meta_rev_at_epoch": 73065,
        "meta_bstar": 0.00014551873,
        "meta_mean_motion_dot": 5.33e-06,
        "meta_mean_motion_ddot": 0,
        "tle_line1": "1 37841U 11058D   25341.17103722  .00000533  00000+0  14552-3 0  9996",
        "tle_line2": "2 37841  19.9699 141.6553 0011709 251.5973 264.6047 14.11508539730650"
      },
      "geometry": {
        "type": "Point",
        "coordinates": [
          -159.82530030708153,
          17.88256149405998
        ]
      }
    },
    {
      "type": "Feature",
      "properties": {
        "norad_id": 38012,
        "name": "PLEIADES 1A",
        "group": "resource",
        "lat": 36.44268964634562,
        "lon": 48.604156615584934,
        "alt_km": 694.5625661987242,
        "timestamp": "2025-12-07T20:38:13.734335+00:00",
        "meta_object_name": "PLEIADES 1A",
        "meta_object_id": "2011-076F",
        "meta_epoch": "2025-12-07T05:47:45.479904",
        "meta_mean_motion": 14.58553558,
        "meta_eccentricity": 0.00013431,
        "meta_inclination": 98.1831,
        "meta_ra_of_asc_node": 54.0948,
        "meta_arg_of_pericenter": 79.1328,
        "meta_mean_anomaly": 312.7714,
        "meta_ephemeris_type": 0,
        "meta_classification_type": "U",
        "meta_norad_cat_id": 38012,
        "meta_element_set_no": 999,
        "meta_rev_at_epoch": 74401,
        "meta_bstar": 0.00019238706,
        "meta_mean_motion_dot": 8.49e-06,
        "meta_mean_motion_ddot": 0,
        "tle_line1": "1 38012U 11076F   25341.24149861  .00000849  00000+0  19239-3 0  9996",
        "tle_line2": "2 38012  98.1831  54.0948 0001343  79.1328 312.7714 14.58553558744017"
      },
      "geometry": {
        "type": "Point",
        "coordinates": [
          48.604156615584934,
          36.44268964634562
        ]
      }
    },
    {
      "type": "Feature",
      "properties": {
        "norad_id": 38038,
        "name": "ZIYUAN 1-02C (ZY 1-02C)",
        "group": "resource",
        "lat": -53.98030740889348,
        "lon": 59.738551439156076,
        "alt_km": 776.5374346776407,
        "timestamp": "2025-12-07T20:38:13.734345+00:00",
        "meta_object_name": "ZIYUAN 1-02C (ZY 1-02C)",
        "meta_object_id": "2011-079A",
        "meta_epoch": "2025-12-07T07:52:20.158176",
        "meta_mean_motion": 14.38003126,
        "meta_eccentricity": 0.00069726,
        "meta_inclination": 98.4342,
        "meta_ra_of_asc_node": 47.4414,
        "meta_arg_of_pericenter": 153.5102,
        "meta_mean_anomaly": 279.874,
        "meta_ephemeris_type": 0,
        "meta_classification_type": "U",
        "meta_norad_cat_id": 38038,
        "meta_element_set_no": 999,
        "meta_rev_at_epoch": 73163,
        "meta_bstar": 0.00033167076,
        "meta_mean_motion_dot": 9.6e-06,
        "meta_mean_motion_ddot": 0,
        "tle_line1": "1 38038U 11079A   25341.32801109  .00000960  00000+0  33167-3 0  9996",
        "tle_line2": "2 38038  98.4342  47.4414 0006972 153.5102 279.8740 14.38003126731634"
      },
      "geometry": {
        "type": "Point",
        "coordinates": [
          59.738551439156076,
          -53.98030740889348
        ]
      }
    },
    {
      "type": "Feature",
      "properties": {
        "norad_id": 38046,
        "name": "ZIYUAN 3-1 (ZY 3-1)",
        "group": "resource",
        "lat": -20.788999736485987,
        "lon": 50.9084980547143,
        "alt_km": 369.91798148531143,
        "timestamp": "2025-12-07T20:38:13.734355+00:00",
        "meta_object_name": "ZIYUAN 3-1 (ZY 3-1)",
        "meta_object_id": "2012-001A",
        "meta_epoch": "2025-12-07T06:56:16.937952",
        "meta_mean_motion": 15.67541747,
        "meta_eccentricity": 0.00019997,
        "meta_inclination": 97.1761,
        "meta_ra_of_asc_node": 47.5833,
        "meta_arg_of_pericenter": 16.7912,
        "meta_mean_anomaly": 343.3415,
        "meta_ephemeris_type": 0,
        "meta_classification_type": "U",
        "meta_norad_cat_id": 38046,
        "meta_element_set_no": 999,
        "meta_rev_at_epoch": 77411,
        "meta_bstar": 0.00085556398,
        "meta_mean_motion_dot": 0.00093621,
        "meta_mean_motion_ddot": 0,
        "tle_line1": "1 38046U 12001A   25341.28908493  .00093621  00000+0  85556-3 0  9995",
        "tle_line2": "2 38046  97.1761  47.5833 0001999  16.7912 343.3415 15.67541747774118"
      },
      "geometry": {
        "type": "Point",
        "coordinates": [
          50.9084980547143,
          -20.788999736485987
        ]
      }
    },
    {
      "type": "Feature",
      "properties": {
        "norad_id": 38338,
        "name": "ARIRANG-3 (KOMPSAT-3)",
        "group": "resource",
        "lat": -58.08324327963395,
        "lon": 102.80448723880097,
        "alt_km": 696.5323346942905,
        "timestamp": "2025-12-07T20:38:13.734365+00:00",
        "meta_object_name": "ARIRANG-3 (KOMPSAT-3)",
        "meta_object_id": "2012-025B",
        "meta_epoch": "2025-12-07T06:24:12.601728",
        "meta_mean_motion": 14.61701609,
        "meta_eccentricity": 0.00057506,
        "meta_inclination": 98.3316,
        "meta_ra_of_asc_node": 295.8152,
        "meta_arg_of_pericenter": 356.5168,
        "meta_mean_anomaly": 3.5992,
        "meta_ephemeris_type": 0,
        "meta_classification_type": "U",
        "meta_norad_cat_id": 38338,
        "meta_element_set_no": 999,
        "meta_rev_at_epoch": 72330,
        "meta_bstar": 0.00024712129,
        "meta_mean_motion_dot": 1.183e-05,
        "meta_mean_motion_ddot": 0,
        "tle_line1": "1 38338U 12025B   25341.26681252  .00001183  00000+0  24712-3 0  9993",
        "tle_line2": "2 38338  98.3316 295.8152 0005750 356.5168   3.5992 14.61701609723308"
      },
      "geometry": {
        "type": "Point",
        "coordinates": [
          102.80448723880097,
          -58.08324327963395
        ]
      }
    }
  ]
}